NORAD_CAT_ID,OBJECT_NAME,OBJECT_TYPE,EPOCH,MEAN_MOTION,ECCENTRICITY,INCLINATION,RA_OF_ASC_NODE,ARG_OF_PERICENTER,MEAN_ANOMALY,BSTAR,MEAN_MOTION_DOT,MEAN_MOTION_DDOT,TLE_LINE0,TLE_LINE1,TLE_LINE2,SEMIMAJOR_AXIS,PERIOD,APOGEE,PERIGEE,DECAYED
51814.0,STARLINK-3599,PAYLOAD,2022-07-16 14:00:01,15.08852799,0.0001499,53.217,189.162,75.4636,153.2793,-0.0016542999999999,-0.00026529,0.0,0 STARLINK-3599,1 51814U 22017AY  22197.58334491 -.00026529  00000-0 -16543-2 0  9996,2 51814  53.2170 189.1620 0001499  75.4636 153.2793 15.08852799 23100,6917.840999999999,95.437,540.743,538.669,0.0
51814.0,STARLINK-3599,PAYLOAD,2022-07-16 22:00:00,15.08828744,0.000147,53.2173,187.6644,85.1151,155.2308,0.0021928,0.00034772,0.0,0 STARLINK-3599,1 51814U 22017AY  22197.91667824  .00034772  00000-0  21928-2 0  9992,2 51814  53.2173 187.6644 0001470  85.1151 155.2308 15.08828744  1306,6917.915,95.438,540.797,538.763,0.0
51814.0,STARLINK-3599,PAYLOAD,2022-07-17 06:00:00,15.0884761,0.0001535,53.2173,186.1699,77.3288,174.6161,-0.00043933,-7.275e-05,0.0,0 STARLINK-3599,1 51814U 22017AY  22198.25001157 -.00007275  00000-0 -43933-3 0  9992,2 51814  53.2173 186.1699 0001535  77.3288 174.6161 15.08847610 23204,6917.857,95.437,540.784,538.66,0.0
51814.0,STARLINK-3599,PAYLOAD,2022-07-17 14:00:01,15.08877458,0.0001429,53.217,184.673,77.4025,186.1387,-0.0047924,-0.00075834,0.0,0 STARLINK-3599,1 51814U 22017AY  22198.58334491 -.00075834  00000-0 -47924-2 0  9997,2 51814  53.2170 184.6730 0001429  77.4025 186.1387 15.08877458  1300,6917.766,95.435,540.619,538.6419999999998,0.0
51814.0,STARLINK-3599,PAYLOAD,2022-07-17 22:00:00,15.0881388,0.0001377,53.2172,183.1756,86.2425,188.9063,0.0020392,0.00032292,0.0,0 STARLINK-3599,1 51814U 22017AY  22198.91667824  .00032292  00000-0  20392-2 0  9992,2 51814  53.2172 183.1756 0001377  86.2425 188.9063 15.08813880  1308,6917.96,95.439,540.778,538.873,0.0
51814.0,STARLINK-3599,PAYLOAD,2022-07-18 14:00:01,15.08849291,0.0001388,53.2168,180.1843,77.6163,220.6858,-0.0021841,-0.00034889,0.0,0 STARLINK-3599,1 51814U 22017AY  22199.58334491 -.00034889  00000-0 -21841-2 0  9993,2 51814  53.2168 180.1843 0001388  77.6163 220.6858 15.08849291 23408,6917.852,95.437,540.677,538.757,0.0
51814.0,STARLINK-3599,PAYLOAD,2022-07-18 22:00:00,15.08825447,0.0001422,53.2169,178.6869,86.5223,223.3723,0.0019111,0.00030246,0.0,0 STARLINK-3599,1 51814U 22017AY  22199.91667824  .00030246  00000-0  19111-2 0  9997,2 51814  53.2169 178.6869 0001422  86.5223 223.3723 15.08825447  1307,6917.925,95.438,540.774,538.806,0.0
51814.0,STARLINK-3599,PAYLOAD,2022-07-19 06:00:00,15.08838747,0.0001496,53.2168,177.1924,77.1599,244.3325,0.00020284,2.942e-05,0.0,0 STARLINK-3599,1 51814U 22017AY  22200.25001157  .00002942  00000-0  20284-3 0  9994,2 51814  53.2168 177.1924 0001496  77.1599 244.3325 15.08838747 23509,6917.884,95.438,540.784,538.714,0.0
51814.0,STARLINK-3599,PAYLOAD,2022-07-19 14:00:01,15.08865009,0.0001436,53.2166,175.6953,77.7076,255.3763,-0.0020726,-0.00033144,0.0,0 STARLINK-3599,1 51814U 22017AY  22200.58334491 -.00033144  00000-0 -20726-2 0  9990,2 51814  53.2166 175.6953 0001436  77.7076 255.3763 15.08865009  1305,6917.804,95.436,540.6619999999998,538.6759999999998,0.0
51814.0,STARLINK-3599,PAYLOAD,2022-07-19 22:00:00,15.08888105,0.0001425,53.2171,174.2014,83.2736,261.4078,-0.0081501,-0.0012787,0.0,0 STARLINK-3599,1 51814U 22017AY  22200.91667824 -.00127870  00000-0 -81501-2 0  9994,2 51814  53.2171 174.2014 0001425  83.2736 261.4078 15.08888105  1306,6917.733,95.435,540.5840000000002,538.613,0.0
51814.0,STARLINK-3599,PAYLOAD,2022-07-20 14:00:01,15.08859889,0.0001433,53.2166,171.2061,76.9626,290.9344,-0.0038089,-0.00060431,0.0,0 STARLINK-3599,1 51814U 22017AY  22201.58334491 -.00060431  00000-0 -38089-2 0  9991,2 51814  53.2166 171.2061 0001433  76.9626 290.9344 15.08859889 23703,6917.82,95.436,540.6759999999998,538.693,0.0
51814.0,STARLINK-3599,PAYLOAD,2022-07-20 22:00:01,15.08820967,0.0001515,53.2169,169.7089,84.2719,295.2742,0.0016339,0.00025798,0.0,0 STARLINK-3599,1 51814U 22017AY  22201.91668981  .00025798  00000-0  16339-2 0  9991,2 51814  53.2169 169.7089 0001515  84.2719 295.2742 15.08820967  1301,6917.939,95.439,540.852,538.755,0.0
51814.0,STARLINK-3599,PAYLOAD,2022-07-21 06:00:00,15.08829537,0.0001575,53.2169,168.2144,74.8959,316.172,0.00013012,1.783e-05,0.0,0 STARLINK-3599,1 51814U 22017AY  22202.25001157  .00001783  00000-0  13012-3 0  9999,2 51814  53.2169 168.2144 0001575  74.8959 316.1720 15.08829537 23804,6917.9119999999975,95.438,540.867,538.688,0.0
51814.0,STARLINK-3599,PAYLOAD,2022-07-21 14:00:01,15.08839945,0.0001449,53.2169,166.7169,76.718,325.9936,-0.0032419,-0.00051514,0.0,0 STARLINK-3599,1 51814U 22017AY  22202.58335648 -.00051514  00000-0 -32419-2 0  9990,2 51814  53.2169 166.7169 0001449  76.7180 325.9936 15.08839945  1303,6917.880999999999,95.438,540.748,538.743,0.0
51814.0,STARLINK-3599,PAYLOAD,2022-07-21 22:00:00,15.08816567,0.0001449,53.2171,165.2201,82.9843,331.2356,0.0011404,0.00017896,0.0,0 STARLINK-3599,1 51814U 22017AY  22202.91667824  .00017896  00000-0  11404-2 0  9995,2 51814  53.2171 165.2201 0001449  82.9843 331.2356 15.08816567  1303,6917.9519999999975,95.439,540.819,538.815,0.0
51814.0,STARLINK-3599,PAYLOAD,2022-07-22 06:00:00,15.08815481,0.0001525,53.2172,163.7255,74.0474,351.7526,0.0013452,0.00021171,0.0,0 STARLINK-3599,1 51814U 22017AY  22203.25001157  .00021171  00000-0  13452-2 0  9990,2 51814  53.2172 163.7255 0001525  74.0474 351.7526 15.08815481  1303,6917.955,95.439,540.875,538.765,0.0
51814.0,STARLINK-3599,PAYLOAD,2022-07-22 12:00:00,15.0884699,0.0001453,53.217,162.6026,74.3375,270.1369,-0.0015691,-0.00025178,0.0,0 STARLINK-3599,1 51814U 22017AY  22203.50001157 -.00025178  00000-0 -15691-2 0  9998,2 51814  53.2170 162.6026 0001453  74.3375 270.1369 15.08846990 23995,6917.859,95.437,540.729,538.719,0.0
51814.0,STARLINK-3599,PAYLOAD,2022-07-22 22:00:00,15.08846664,0.0001459,53.2174,160.7311,84.0376,4.9305,0.0008423,0.00013145,0.0,0 STARLINK-3599,1 51814U 22017AY  22203.91667824  .00013145  00000-0  84230-3 0  9997,2 51814  53.2174 160.7311 0001459  84.0376   4.9305 15.08846664 24059,6917.86,95.437,540.734,538.716,0.0
51814.0,STARLINK-3599,PAYLOAD,2022-07-23 14:00:01,15.08835629,0.000132,53.2173,157.7388,79.2396,32.9971,-0.0010712,-0.00017293,0.0,0 STARLINK-3599,1 51814U 22017AY  22204.58335648 -.00017293  00000-0 -10712-2 0  9990,2 51814  53.2173 157.7388 0001320  79.2396  32.9971 15.08835629 24153,6917.894,95.438,540.672,538.846,0.0
51814.0,STARLINK-3599,PAYLOAD,2022-07-23 22:00:00,15.08842687,0.0001351999999999,53.2175,156.2429,84.8229,38.9529,0.00029573,4.422e-05,0.0,0 STARLINK-3599,1 51814U 22017AY  22204.91667824  .00004422  00000-0  29573-3 0  9995,2 51814  53.2175 156.2429 0001352  84.8229  38.9529 15.08842687  1306,6917.871999999999,95.437,540.672,538.802,0.0
51814.0,STARLINK-3599,PAYLOAD,2022-07-24 14:00:01,15.08852876,0.0001385,53.2172,153.2498,82.26700000000002,64.7012,-0.0036332,-0.00057667,0.0,0 STARLINK-3599,1 51814U 22017AY  22205.58334491 -.00057667  00000-0 -36332-2 0  9991,2 51814  53.2172 153.2498 0001385  82.2670  64.7012 15.08852876  1309,6917.840999999999,95.437,540.664,538.748,0.0
51814.0,STARLINK-3599,PAYLOAD,2022-07-24 22:00:00,15.08831432,0.0001486,53.2174,151.7535,86.9418,71.6092,-0.00029534,-4.984e-05,0.0,0 STARLINK-3599,1 51814U 22017AY  22205.91667824 -.00004984  00000-0 -29534-3 0  9998,2 51814  53.2174 151.7535 0001486  86.9418  71.6092 15.08831432 24360,6917.906999999997,95.438,540.8,538.744,0.0
51814.0,STARLINK-3599,PAYLOAD,2022-07-25 14:00:01,15.08829941,0.0001449,53.2171,148.761,84.4853,97.2225,-0.0003506999999999,-5.863e-05,0.0,0 STARLINK-3599,1 51814U 22017AY  22206.58334491 -.00005863  00000-0 -35070-3 0  9992,2 51814  53.2171 148.7610 0001449  84.4853  97.2225 15.08829941  1305,6917.911,95.438,540.779,538.774,0.0
51814.0,STARLINK-3599,PAYLOAD,2022-07-25 22:00:00,15.088470499999998,0.0001525,53.2173,147.265,87.9228,105.363,-0.00066222,-0.00010814,0.0,0 STARLINK-3599,1 51814U 22017AY  22206.91667824 -.00010814  00000-0 -66222-3 0  9993,2 51814  53.2173 147.2650 0001525  87.9228 105.3630 15.08847050  1306,6917.859,95.437,540.779,538.669,0.0
51814.0,STARLINK-3599,PAYLOAD,2022-07-26 04:00:01,15.08831156,0.0001565999999999,53.2171,146.144,80.1177,31.9299,0.0003685,5.58e-05,0.0,0 STARLINK-3599,1 51814U 22017AY  22207.16668981  .00005580  00000-0  36850-3 0  9992,2 51814  53.2171 146.1440 0001566  80.1177  31.9299 15.08831156 24548,6917.906999999997,95.438,540.856,538.689,0.0
51814.0,STARLINK-3599,PAYLOAD,2022-07-26 14:00:01,15.08839605,0.0001481,53.2171,144.2722,85.2603,131.2146,0.00017852,2.554e-05,0.0,0 STARLINK-3599,1 51814U 22017AY  22207.58334491  .00002554  00000-0  17852-3 0  9993,2 51814  53.2171 144.2722 0001481  85.2603 131.2146 15.08839605  1307,6917.882,95.438,540.771,538.722,0.0
51814.0,STARLINK-3599,PAYLOAD,2022-07-26 22:00:00,15.08860438,0.0001569,53.2172,142.7762,87.5609,140.505,-0.00088698,-0.00014384,0.0,0 STARLINK-3599,1 51814U 22017AY  22207.91667824 -.00014384  00000-0 -88698-3 0  9991,2 51814  53.2172 142.7762 0001569  87.5609 140.5050 15.08860438  1308,6917.818,95.436,540.768,538.5980000000002,0.0
51814.0,STARLINK-3599,PAYLOAD,2022-07-27 06:00:02,15.0883155,0.0001565999999999,53.2173,141.2813,77.8775,161.8704,0.0025767,0.00040949,0.0,0 STARLINK-3599,1 51814U 22017AY  22208.25002315  .00040949  00000-0  25767-2 0  9998,2 51814  53.2173 141.2813 0001566  77.8775 161.8704 15.08831550 24718,6917.906,95.438,540.855,538.688,0.0
51814.0,STARLINK-3599,PAYLOAD,2022-07-27 14:00:01,15.08844065,0.0001447,53.2175,139.7833,84.6128,166.6827,-0.0011882,-0.0001915,0.0,0 STARLINK-3599,1 51814U 22017AY  22208.58334491 -.00019150  00000-0 -11882-2 0  9992,2 51814  53.2175 139.7833 0001447  84.6128 166.6827 15.08844065  1304,6917.868,95.437,540.734,538.732,0.0
